STARLINK-30982          
1 58512U 23191E   26068.47114459  .00018644  00000+0  68716-3 0  9997
2 58512  42.9984 105.0294 0001071 306.8199  53.2554 15.27490960125437
NUSAT-50 (NANCY ROMAN)  
1 60493U 24149AB  26068.80227738  .00012094  00000+0  42252-3 0  9994
2 60493  97.3817 150.7693 0002523 238.0469 122.0527 15.29713355 86930
